full_name,a,e,i,om,w,q,ad,per_y,data_arc,condition_code,n_obs_used,n_del_obs_used,n_dop_obs_used,H
"   803 Picka (1915 WS)",3.196416909483876,.06525488805797595,8.675662451504781,250.96904935675,60.68231881528323,2.987835081868885,3.404998737098868,5.71483020511197,37596,0,2056,,,9.4
"   808 Merxia (1901 GY)",2.74714971077509,.1275182401945588,4.721946946553329,181.0411156530586,274.7556356383802,2.396838014106059,3.09746140744412,4.5533569150238,42271,0,2383,,,9.7
"   824 Anastasia (1916 ZH)",2.792165368206646,.1375036608023607,8.126727769148777,141.3889389828478,142.0024781684884,2.408232408512661,3.176098327900631,4.66573325931198,38076,0,2053,,,10.41
"   828 Lindemannia (1916 ZX)",3.189756456775856,.027887839529683,1.125666354108604,1.833186057164558,293.3521569234127,3.100801040570521,3.278711872981192,5.69697731446308,40765,0,2631,,,10.33
"   829 Academia (1916 ZY)",2.579592519281017,.09962616628190192,8.283109089063165,352.5008531639195,41.14499626373183,2.322597606015576,2.836587432546458,4.14319014987466,38013,0,1966,,,11.0
"   830 Petropolitana (1916 ZZ)",3.216861950970899,.0624814281881101,3.799826551267889,340.5161993700137,89.23921242926812,3.015867821990247,3.417856079951551,5.76974790479869,37065,0,2343,,,9.10
"   835 Olivia (1916 AE)",3.225632765198397,.08744546165972229,3.691816227338783,308.6441535102798,65.16214194180661,2.943565818900896,3.507699711495897,5.79336091625843,37046,0,2169,,,11.5
"   842 Kerstin (1916 AM)",3.240183060838505,.1191479361746011,14.5305719826912,5.671122638073449,351.6036302367613,2.854121936311695,3.626244185365315,5.8326044271627,37067,0,1785,,,10.6
"   844 Leontina (1916 AP)",3.201968005607981,.06879942103948974,8.778058705696941,348.7018459639256,352.8117611643099,2.981674460635182,3.422261550580779,5.72972376030088,42124,0,1739,,,9.6
"   848 Inna (1915 XS)",3.114157160940809,.1637471363395941,1.053040549993122,207.7886901314384,124.950919311087,2.604222843725311,3.624091478156307,5.49564905547395,40939,0,2721,,,11.2
"   856 Backlunda (1916 S30)",2.435274319290082,.1185952611320557,14.32001358258264,125.5630352151605,73.20367038830994,2.146462325465685,2.724086313114478,3.8004063562967,31771,0,1832,,,10.69
"   860 Ursina (1917 BD)",2.79672886788896,.1061929361646034,13.29655876183785,309.3659300892023,21.63033263386272,2.499736017751524,3.093721718026396,4.67717640485351,41955,0,1767,,,10.26
"   863 Benkoela (1917 BH)",3.201984066144857,.02938832021421335,25.41228877849283,116.9395460943293,96.58215695909041,3.107883133088183,3.29608499920153,5.72976686936145,36867,0,1659,,,9.02
"   872 Holda (1917 BZ)",2.731624714942404,.0790527652764637,7.37519868486697,194.7389250278594,17.6966962598068,2.515682227528675,2.947567202356132,4.51481284954933,42839,0,2441,,,9.91
"   873 Mechthild (1917 CA)",2.626996634293962,.1489351605965627,5.274135896104966,150.0336899240068,110.1947581235062,2.235744468678761,3.018248799909164,4.25791979790206,36772,0,2130,,,11.49
"   877 Walkure (1915 S7)",2.486693086138809,.1607073516376843,4.255023125992798,116.3780337693586,276.0309967409341,2.087063225929701,2.886322946347917,3.92140305252177,35400,0,2586,,,10.71
"   880 Herba (1917 CK)",2.997321726052785,.3232135861967231,15.14753879662729,262.6144260669717,101.0524093236241,2.028546621989912,3.966096830115658,5.18929362234139,36769,0,1788,,,11.46
"   882 Swetlana (1917 CM)",3.125687177253577,.2664277386809211,6.125069572105703,256.3057625695549,126.5789148298752,2.292917410793955,3.958456943713199,5.52619835110841,36678,0,2089,,,10.6
"   885 Ulrike (1917 CX)",3.092393560488492,.1869802933691984,3.30433234669925,149.050074405335,204.308174269971,2.514176905335334,3.670610215641651,5.43813948291148,40730,0,2346,,,10.7
"   888 Parysatis (1918 DC)",2.710272330205039,.1934187220878235,13.84234810539175,123.9656893341325,297.9864354499584,2.186054919586792,3.234489740823284,4.46197979360855,40596,0,1718,,,9.51
"   899 Jokaste (1918 EB)",2.906898944279582,.2006230659104145,12.46726115549113,252.4252776645056,127.6565650261944,2.323707965786465,3.490089922772698,4.95624884585286,36276,0,1686,,,10.14
"   904 Rockefellia (1918 EO)",2.993133199379179,.08823153607135625,15.16093307321912,198.1350734247958,251.2587871779899,2.729044459531781,3.257221939226576,5.17841996501492,38069,0,2052,,,10.4
"   908 Buda (1918 EX)",2.472811639224662,.147649414527925,13.41464930482011,85.5498033828822,23.70165297374073,2.107702448455302,2.837920829994022,3.88861329444108,36012,0,1605,,,10.69
"   910 Anneliese (1919 FB)",2.926912016959104,.153640806761615,9.209388737229364,49.94397735437712,208.2649618084039,2.477218893353241,3.376605140564966,5.00752013049413,36124,0,2263,,,10.5
"   916 America (1915 S1)",2.364457166126341,.2372576651743862,11.09262549432307,329.7837028287386,41.74978902122705,1.80347157948636,2.925442752766323,3.6358451511281,34362,0,2187,,,11.5
"   917 Lyka (1915 S4)",2.381208566129009,.2001427469410136,5.125723571142479,343.4000364736677,359.8781465331,1.904626942664477,2.85779018959354,3.67455165265907,35646,0,2022,,,11.6
"   919 Ilsebill (1918 EQ)",2.775163800108484,.08312903896557501,8.165435503324225,229.8385517238753,154.9385496546621,2.544467100433413,3.005860499783556,4.62318353760986,36249,0,2169,,,11.4
"   923 Herluga (1919 GB)",2.613830090184389,.1966300692212645,14.4771156423067,197.6159667196657,201.1012161983124,2.099872498618808,3.127787681749969,4.22594881058577,35970,0,1854,,,11.50
"   926 Imhilde (1920 GN)",2.981241219294691,.1819528166181787,16.33393556267126,49.01031307335453,174.1773244044233,2.438795982425809,3.523686456163574,5.14758916576902,35805,0,1750,,,10.5
"   930 Westphalia (1920 GS)",2.430837369744255,.1435636027984624,15.33514272903384,340.9845867402344,330.2222330901088,2.081857599126631,2.779817140361878,3.79002485948125,35797,0,2001,,,11.2
"   931 Whittemora (1920 GU)",3.17156556504287,.2313722305028449,11.47547399000554,111.0098499321063,315.2964359506855,2.437753366072886,3.905377764012854,5.64831284478089,41343,0,1771,,,9.26
"   936 Kunigunde (1920 HN)",3.13002633993,.1775253487729738,2.369154341243306,62.18369986137274,254.132741732302,2.574367322265332,3.685685357594668,5.53770976881001,35600,0,2615,,,10.4
"   938 Chlosinde (1920 HQ)",3.149013051180951,.1951941418394539,2.669482208958347,119.0627266612598,226.0377501294923,2.534344151014445,3.763681951347457,5.58817364981046,35567,0,2135,,,11.3
"   942 Romilda (1920 HW)",3.1567378975024,.171443568314224,10.57346780521149,71.34693553298769,319.8024043672479,2.615535488121847,3.697940306882953,5.60874878472256,35567,0,1779,,,11.0
"   946 Poesia (1921 JC)",3.117022755631551,.1435559948186183,1.431443445745708,69.6592853147482,38.18804638868534,2.669555453074592,3.564490058188509,5.50323630503288,35235,0,2364,,,10.42
"   959 Arne (1921 KF)",3.17713752406218,.2207181465118148,4.497329039935262,58.52763462477308,333.6621047710742,2.475885618538039,3.878389429586321,5.66320422222377,36604,0,2067,,,10.7
"   961 Gunnie (1921 KM)",2.692918438204545,.09066206690918489,10.99371767857623,26.62971830682049,285.0090162808772,2.448772886579067,2.937063989830023,4.41919333736907,34957,0,1702,,,11.5
"   979 Ilsewa (1922 MC)",3.156923553113657,.1372633503908224,10.11189280773757,230.6239820265833,115.3314723161074,2.723593649285577,3.590253456941737,5.60924358870754,34821,0,1973,,,9.7
"   981 Martina (1917 S92)",3.093421284120879,.203735277402455,2.065619563236496,46.07887961116604,298.411205919659,2.463182240677853,3.723660327563904,5.44085066860669,40729,0,2406,,,10.57
"   982 Franklina (1922 MD)",3.065489275308358,.2347340827812633,13.65095098102369,299.1881374981214,351.1099220617999,2.345914461993051,3.785064088623666,5.36732513072504,32730,0,1958,,,9.9
"   984 Gretia (1922 MH)",2.802344960224126,.1974108819331746,9.093748801778222,314.2066370086446,55.44836504781104,2.249131570145294,3.355558350302958,4.6912717846329,34907,0,1939,,,9.03
"   986 Amelia (1922 MQ)",3.134188225329635,.2022702347453778,14.81272865981448,92.59762277437821,265.6727108847238,2.500235237256011,3.768141213403259,5.5487583849555,33554,0,1954,,,9.4
"   991 McDonalda (1922 NB)",3.142523620831262,.1582756107201593,2.069564726189379,63.25423767599685,254.6391407162718,2.645138775541668,3.639908466120856,5.57090853836779,29987,0,2552,,,11.12
"  1000 Piazzia (1923 NZ)",3.17009324064349,.2582138942804949,20.57461153818948,323.7420640213598,280.8932369405125,2.35153111974466,3.98865536154232,5.64438015755076,34558,0,1917,,,10.5
"  1003 Lilofee (1923 OK)",3.139836520605116,.1598315112954768,1.840144681267636,139.4479317978704,317.3711878510794,2.637991704296069,3.641681336914163,5.56376473091988,34380,0,2191,,,10.7
"  1006 Lagrangea (1923 OU)",3.142358854116631,.3569891248858565,10.9175216264846,294.5917982714681,86.25036820146349,2.020570916708212,4.26414679152505,5.57047040883736,34235,0,1425,,,11.3
"  1008 La Paz (1923 PD)",3.091083810120637,.07816379119617319,8.936232151056126,20.55242299214667,14.74758096426278,2.849472980616496,3.332694639624778,5.4346849496415,34452,0,1972,,,10.6
"  1010 Marlene (1923 PF)",2.930353776581219,.103348881431818,3.907045762173468,98.74677521811834,279.7554199621873,2.627504991572046,3.233202561590391,5.01635525061583,41645,0,2215,,,10.7
"  1013 Tombecka (1924 PQ)",2.682799139767128,.2091335184367749,11.90067856381061,27.24220633998097,99.91031978925426,2.121735916408475,3.243862363125781,4.39430745604212,40795,0,1622,,,10.12
"  1017 Jacqueline (1924 QL)",2.604643189593332,.07887603447929338,7.92810458208483,118.9512693167402,68.18384607210552,2.399199263564712,2.810087115621953,4.20368881076684,32752,0,1982,,,11.0
"  1022 Olympiada (1924 RT)",2.805138915908561,.1749485223447129,21.05443534894074,111.9668066196161,124.7398749237258,2.314384007598709,3.295893824218414,4.69828937460044,39006,0,1892,,,10.2
"  1024 Hale (A923 YO13)",2.866258783672365,.2244278128549946,16.08959107154478,58.85552031532801,307.9364680625387,2.222990593776359,3.509526973568371,4.85267605142033,32587,0,1981,,,10.7
